UNKNOWN                 
1 85004U          26002.40975470  .00002165  00000+0  67559-3 0  9991
2 85004  98.4241 338.1443 0048165  99.9158  51.4272 14.41143338633878
UNKNOWN                 
1 85010U          25364.09395772  .00001487  00000+0  15968-2 0  9996
2 85010  99.2483 225.4731 0025077 209.7149 304.2048 13.75092612606300
UNKNOWN                 
1 85015U          25361.75484913  .00000722  00000+0  14884-3 0  9995
2 85015  74.0489   9.4705 0016703 272.8549  87.0706 14.62307629644802
UNKNOWN                 
1 85023U          26003.53901826  .00045050  00000+0  65400-2 0  9993
2 85023  99.8480  28.7203 0001817 236.8136 275.9589 14.75796579632046
UNKNOWN                 
1 85027U          26003.41231919  .00000250  00000+0  31159-3 0  9991
2 85027  66.0419  48.4366 0175548 179.3059 180.8283 13.74257739607590
UNKNOWN                 
1 85047U          26001.87893217  .00023116  00000+0  36355-1 0  9993
2 85047 102.1827 336.5384 0162822 332.4775  26.7796 13.44867747579369
UNKNOWN                 
1 85061U          26003.45527856  .00005311  00000+0  21384-1 0  9991
2 85061 102.3933 354.2407 0255358 149.1646   2.9766 12.77159517558550
UNKNOWN                 
1 85100U          25362.29963697  .00000454  00000+0  15035-3 0  9992
2 85100  74.0437 194.0195 0011568  56.0514 126.3561 14.40722397635582
UNKNOWN                 
1 85106U          26003.55632126  .00000955  00000+0  10883-2 0  9991
2 85106 100.0529 110.4880 0008844 316.9089  61.9609 13.72933352606068
UNKNOWN                 
1 85151U          26002.87871344  .00037556  00000+0  49846-2 0  9990
2 85151  98.4032 232.8576 0009949  61.4416 298.7794 14.79640428482650
UNKNOWN                 
1 85210U          26003.66502218  .00001772  00000+0  17063-2 0  9992
2 85210  99.8560 150.2529 0217603 257.8582 115.1917 13.71586774605167
UNKNOWN                 
1 85217U          26003.51456006  .00003707  00000+0  97828-3 0  9994
2 85217  98.0298 101.4891 0208399  62.8170 299.4094 14.37320321630989
