CCSDS_OMM_VERS = 2.0
CREATION_DATE  = 
ORIGINATOR     = 

OBJECT_NAME    = UNKNOWN
OBJECT_ID      = 
CENTER_NAME    = EARTH
REF_FRAME      = TEME
TIME_SYSTEM    = UTC
MEAN_ELEMENT_THEORY = SGP/SGP4

EPOCH          = 2026-01-02T09:50:02.806080
MEAN_MOTION    = 14.41143338
ECCENTRICITY   = .0048165
INCLINATION    = 98.4241
RA_OF_ASC_NODE = 338.1443
ARG_OF_PERICENTER = 99.9158
MEAN_ANOMALY   = 51.4272

EPHEMERIS_TYPE = 0
CLASSIFICATION_TYPE = U
NORAD_CAT_ID   = 85004
ELEMENT_SET_NO = 999
REV_AT_EPOCH   = 63387
BSTAR          = .67559E-3
MEAN_MOTION_DOT = .2165E-4
MEAN_MOTION_DDOT = 0

CCSDS_OMM_VERS = 2.0
CREATION_DATE  = 
ORIGINATOR     = 

OBJECT_NAME    = UNKNOWN
OBJECT_ID      = 
CENTER_NAME    = EARTH
REF_FRAME      = TEME
TIME_SYSTEM    = UTC
MEAN_ELEMENT_THEORY = SGP/SGP4

EPOCH          = 2025-12-30T02:15:17.947008
MEAN_MOTION    = 13.75092612
ECCENTRICITY   = .0025077
INCLINATION    = 99.2483
RA_OF_ASC_NODE = 225.4731
ARG_OF_PERICENTER = 209.7149
MEAN_ANOMALY   = 304.2048

EPHEMERIS_TYPE = 0
CLASSIFICATION_TYPE = U
NORAD_CAT_ID   = 85010
ELEMENT_SET_NO = 999
REV_AT_EPOCH   = 60630
BSTAR          = .15968E-2
MEAN_MOTION_DOT = .1487E-4
MEAN_MOTION_DDOT = 0

CCSDS_OMM_VERS = 2.0
CREATION_DATE  = 
ORIGINATOR     = 

OBJECT_NAME    = UNKNOWN
OBJECT_ID      = 
CENTER_NAME    = EARTH
REF_FRAME      = TEME
TIME_SYSTEM    = UTC
MEAN_ELEMENT_THEORY = SGP/SGP4

EPOCH          = 2025-12-27T18:06:58.964832
MEAN_MOTION    = 14.62307629
ECCENTRICITY   = .0016703
INCLINATION    = 74.0489
RA_OF_ASC_NODE = 9.4705
ARG_OF_PERICENTER = 272.8549
MEAN_ANOMALY   = 87.0706

EPHEMERIS_TYPE = 0
CLASSIFICATION_TYPE = U
NORAD_CAT_ID   = 85015
ELEMENT_SET_NO = 999
REV_AT_EPOCH   = 64480
BSTAR          = .14884E-3
MEAN_MOTION_DOT = .722E-5
MEAN_MOTION_DDOT = 0

CCSDS_OMM_VERS = 2.0
CREATION_DATE  = 
ORIGINATOR     = 

OBJECT_NAME    = UNKNOWN
OBJECT_ID      = 
CENTER_NAME    = EARTH
REF_FRAME      = TEME
TIME_SYSTEM    = UTC
MEAN_ELEMENT_THEORY = SGP/SGP4

EPOCH          = 2026-01-03T12:56:11.177664
MEAN_MOTION    = 14.75796579
ECCENTRICITY   = .0001817
INCLINATION    = 99.8480
RA_OF_ASC_NODE = 28.7203
ARG_OF_PERICENTER = 236.8136
MEAN_ANOMALY   = 275.9589

EPHEMERIS_TYPE = 0
CLASSIFICATION_TYPE = U
NORAD_CAT_ID   = 85023
ELEMENT_SET_NO = 999
REV_AT_EPOCH   = 63204
BSTAR          = .654E-2
MEAN_MOTION_DOT = .4505E-3
MEAN_MOTION_DDOT = 0

CCSDS_OMM_VERS = 2.0
CREATION_DATE  = 
ORIGINATOR     = 

OBJECT_NAME    = UNKNOWN
OBJECT_ID      = 
CENTER_NAME    = EARTH
REF_FRAME      = TEME
TIME_SYSTEM    = UTC
MEAN_ELEMENT_THEORY = SGP/SGP4

EPOCH          = 2026-01-03T09:53:44.378016
MEAN_MOTION    = 13.74257739
ECCENTRICITY   = .0175548
INCLINATION    = 66.0419
RA_OF_ASC_NODE = 48.4366
ARG_OF_PERICENTER = 179.3059
MEAN_ANOMALY   = 180.8283

EPHEMERIS_TYPE = 0
CLASSIFICATION_TYPE = U
NORAD_CAT_ID   = 85027
ELEMENT_SET_NO = 999
REV_AT_EPOCH   = 60759
BSTAR          = .31159E-3
MEAN_MOTION_DOT = .25E-5
MEAN_MOTION_DDOT = 0

CCSDS_OMM_VERS = 2.0
CREATION_DATE  = 
ORIGINATOR     = 

OBJECT_NAME    = UNKNOWN
OBJECT_ID      = 
CENTER_NAME    = EARTH
REF_FRAME      = TEME
TIME_SYSTEM    = UTC
MEAN_ELEMENT_THEORY = SGP/SGP4

EPOCH          = 2026-01-01T21:05:39.739488
MEAN_MOTION    = 13.44867747
ECCENTRICITY   = .0162822
INCLINATION    = 102.1827
RA_OF_ASC_NODE = 336.5384
ARG_OF_PERICENTER = 332.4775
MEAN_ANOMALY   = 26.7796

EPHEMERIS_TYPE = 0
CLASSIFICATION_TYPE = U
NORAD_CAT_ID   = 85047
ELEMENT_SET_NO = 999
REV_AT_EPOCH   = 57936
BSTAR          = .36355E-1
MEAN_MOTION_DOT = .23116E-3
MEAN_MOTION_DDOT = 0

CCSDS_OMM_VERS = 2.0
CREATION_DATE  = 
ORIGINATOR     = 

OBJECT_NAME    = UNKNOWN
OBJECT_ID      = 
CENTER_NAME    = EARTH
REF_FRAME      = TEME
TIME_SYSTEM    = UTC
MEAN_ELEMENT_THEORY = SGP/SGP4

EPOCH          = 2026-01-03T10:55:36.067584
MEAN_MOTION    = 12.77159517
ECCENTRICITY   = .0255358
INCLINATION    = 102.3933
RA_OF_ASC_NODE = 354.2407
ARG_OF_PERICENTER = 149.1646
MEAN_ANOMALY   = 2.9766

EPHEMERIS_TYPE = 0
CLASSIFICATION_TYPE = U
NORAD_CAT_ID   = 85061
ELEMENT_SET_NO = 999
REV_AT_EPOCH   = 55855
BSTAR          = .21384E-1
MEAN_MOTION_DOT = .5311E-4
MEAN_MOTION_DDOT = 0

CCSDS_OMM_VERS = 2.0
CREATION_DATE  = 
ORIGINATOR     = 

OBJECT_NAME    = UNKNOWN
OBJECT_ID      = 
CENTER_NAME    = EARTH
REF_FRAME      = TEME
TIME_SYSTEM    = UTC
MEAN_ELEMENT_THEORY = SGP/SGP4

EPOCH          = 2025-12-28T07:11:28.634208
MEAN_MOTION    = 14.40722397
ECCENTRICITY   = .0011568
INCLINATION    = 74.0437
RA_OF_ASC_NODE = 194.0195
ARG_OF_PERICENTER = 56.0514
MEAN_ANOMALY   = 126.3561

EPHEMERIS_TYPE = 0
CLASSIFICATION_TYPE = U
NORAD_CAT_ID   = 85100
ELEMENT_SET_NO = 999
REV_AT_EPOCH   = 63558
BSTAR          = .15035E-3
MEAN_MOTION_DOT = .454E-5
MEAN_MOTION_DDOT = 0

CCSDS_OMM_VERS = 2.0
CREATION_DATE  = 
ORIGINATOR     = 

OBJECT_NAME    = UNKNOWN
OBJECT_ID      = 
CENTER_NAME    = EARTH
REF_FRAME      = TEME
TIME_SYSTEM    = UTC
MEAN_ELEMENT_THEORY = SGP/SGP4

EPOCH          = 2026-01-03T13:21:06.156864
MEAN_MOTION    = 13.72933352
ECCENTRICITY   = .0008844
INCLINATION    = 100.0529
RA_OF_ASC_NODE = 110.4880
ARG_OF_PERICENTER = 316.9089
MEAN_ANOMALY   = 61.9609

EPHEMERIS_TYPE = 0
CLASSIFICATION_TYPE = U
NORAD_CAT_ID   = 85106
ELEMENT_SET_NO = 999
REV_AT_EPOCH   = 60606
BSTAR          = .10883E-2
MEAN_MOTION_DOT = .955E-5
MEAN_MOTION_DDOT = 0

CCSDS_OMM_VERS = 2.0
CREATION_DATE  = 
ORIGINATOR     = 

OBJECT_NAME    = UNKNOWN
OBJECT_ID      = 
CENTER_NAME    = EARTH
REF_FRAME      = TEME
TIME_SYSTEM    = UTC
MEAN_ELEMENT_THEORY = SGP/SGP4

EPOCH          = 2026-01-02T21:05:20.841216
MEAN_MOTION    = 14.79640428
ECCENTRICITY   = .0009949
INCLINATION    = 98.4032
RA_OF_ASC_NODE = 232.8576
ARG_OF_PERICENTER = 61.4416
MEAN_ANOMALY   = 298.7794

EPHEMERIS_TYPE = 0
CLASSIFICATION_TYPE = U
NORAD_CAT_ID   = 85151
ELEMENT_SET_NO = 999
REV_AT_EPOCH   = 48265
BSTAR          = .49846E-2
MEAN_MOTION_DOT = .37556E-3
MEAN_MOTION_DDOT = 0

CCSDS_OMM_VERS = 2.0
CREATION_DATE  = 
ORIGINATOR     = 

OBJECT_NAME    = UNKNOWN
OBJECT_ID      = 
CENTER_NAME    = EARTH
REF_FRAME      = TEME
TIME_SYSTEM    = UTC
MEAN_ELEMENT_THEORY = SGP/SGP4

EPOCH          = 2026-01-03T15:57:37.916352
MEAN_MOTION    = 13.71586774
ECCENTRICITY   = .0217603
INCLINATION    = 99.8560
RA_OF_ASC_NODE = 150.2529
ARG_OF_PERICENTER = 257.8582
MEAN_ANOMALY   = 115.1917

EPHEMERIS_TYPE = 0
CLASSIFICATION_TYPE = U
NORAD_CAT_ID   = 85210
ELEMENT_SET_NO = 999
REV_AT_EPOCH   = 60516
BSTAR          = .17063E-2
MEAN_MOTION_DOT = .1772E-4
MEAN_MOTION_DDOT = 0

CCSDS_OMM_VERS = 2.0
CREATION_DATE  = 
ORIGINATOR     = 

OBJECT_NAME    = UNKNOWN
OBJECT_ID      = 
CENTER_NAME    = EARTH
REF_FRAME      = TEME
TIME_SYSTEM    = UTC
MEAN_ELEMENT_THEORY = SGP/SGP4

EPOCH          = 2026-01-03T12:20:57.989184
MEAN_MOTION    = 14.37320321
ECCENTRICITY   = .0208399
INCLINATION    = 98.0298
RA_OF_ASC_NODE = 101.4891
ARG_OF_PERICENTER = 62.8170
MEAN_ANOMALY   = 299.4094

EPHEMERIS_TYPE = 0
CLASSIFICATION_TYPE = U
NORAD_CAT_ID   = 85217
ELEMENT_SET_NO = 999
REV_AT_EPOCH   = 63098
BSTAR          = .97828E-3
MEAN_MOTION_DOT = .3707E-4
MEAN_MOTION_DDOT = 0

